IRIDIUM 36              
1 24967U 97056C   24133.60594675  .00001596  00000+0  53448-3 0  9997
2 24967  86.3967 341.2390 0002035  90.5174 269.6256 14.36781830394684
IRIDIUM 39              
1 25042U 97069D   24133.62630364  .00002850  00000+0  76231-3 0  9993
2 25042  86.3953  22.7689 0017368 196.4830 163.5811 14.47923542390973
IRIDIUM 38              
1 25043U 97069E   24133.48543567  .00001794  00000+0  59623-3 0  9998
2 25043  86.3993  41.6593 0002344  38.7624 321.3742 14.37237306388383
IRIDIUM 42              
1 25077U 97077A   24133.49602233  .00001712  00000+0  58841-3 0  9992
2 25077  86.3993  47.3320 0002299  69.1224 291.0218 14.35540454383693
IRIDIUM 44              
1 25078U 97077B   24133.62107016  .00001774  00000+0  56456-3 0  9995
2 25078  86.3994  30.2849 0000427  88.6274 271.4973 14.39372919386061
IRIDIUM 45              
1 25104U 97082A   24133.33044231  .00022285  00000+0  12623-2 0  9995
2 25104  86.3764 239.0636 0160952  10.6199 349.8364 15.02456870391475
IRIDIUM 24              
1 25105U 97082B   24133.61441075  .00002542  00000+0  78263-3 0  9991
2 25105  86.3918 249.9219 0010105 329.9818  30.0801 14.41147427385501
